CCSDS_OMM_VERS = 2.0
CREATION_DATE  = 
ORIGINATOR     = 

OBJECT_NAME    = ALOS-2
OBJECT_ID      = 2014-029A
CENTER_NAME    = EARTH
REF_FRAME      = TEME
TIME_SYSTEM    = UTC
MEAN_ELEMENT_THEORY = SGP/SGP4

EPOCH          = 2026-03-19T22:20:40.636032
MEAN_MOTION    = 14.79408776
ECCENTRICITY   = .00017884
INCLINATION    = 97.9196
RA_OF_ASC_NODE = 177.3798
ARG_OF_PERICENTER = 107.5742
MEAN_ANOMALY   = 252.5665

EPHEMERIS_TYPE = 0
CLASSIFICATION_TYPE = U
NORAD_CAT_ID   = 39766
ELEMENT_SET_NO = 999
REV_AT_EPOCH   = 63838
BSTAR          = .71914337E-4
MEAN_MOTION_DOT = .485E-5
MEAN_MOTION_DDOT = 0

CCSDS_OMM_VERS = 2.0
CREATION_DATE  = 
ORIGINATOR     = 

OBJECT_NAME    = YAOGAN-29
OBJECT_ID      = 2015-069A
CENTER_NAME    = EARTH
REF_FRAME      = TEME
TIME_SYSTEM    = UTC
MEAN_ELEMENT_THEORY = SGP/SGP4

EPOCH          = 2026-03-19T23:35:07.893600
MEAN_MOTION    = 14.83007271
ECCENTRICITY   = .00012062
INCLINATION    = 98.0128
RA_OF_ASC_NODE = 107.4389
ARG_OF_PERICENTER = 22.7761
MEAN_ANOMALY   = 337.3505

EPHEMERIS_TYPE = 0
CLASSIFICATION_TYPE = U
NORAD_CAT_ID   = 41038
ELEMENT_SET_NO = 999
REV_AT_EPOCH   = 55740
BSTAR          = .69169896E-4
MEAN_MOTION_DOT = .508E-5
MEAN_MOTION_DDOT = 0

CCSDS_OMM_VERS = 2.0
CREATION_DATE  = 
ORIGINATOR     = 

OBJECT_NAME    = ASTRO-H (HITOMI)
OBJECT_ID      = 2016-012A
CENTER_NAME    = EARTH
REF_FRAME      = TEME
TIME_SYSTEM    = UTC
MEAN_ELEMENT_THEORY = SGP/SGP4

EPOCH          = 2026-03-19T19:31:42.957696
MEAN_MOTION    = 15.10068181
ECCENTRICITY   = .00096184
INCLINATION    = 30.9993
RA_OF_ASC_NODE = 291.2126
ARG_OF_PERICENTER = 72.9706
MEAN_ANOMALY   = 287.1986

EPHEMERIS_TYPE = 0
CLASSIFICATION_TYPE = U
NORAD_CAT_ID   = 41337
ELEMENT_SET_NO = 999
REV_AT_EPOCH   = 55376
BSTAR          = .15439138E-3
MEAN_MOTION_DOT = .2672E-4
MEAN_MOTION_DDOT = 0

CCSDS_OMM_VERS = 2.0
CREATION_DATE  = 
ORIGINATOR     = 

OBJECT_NAME    = HXMT (HUIYAN)
OBJECT_ID      = 2017-034A
CENTER_NAME    = EARTH
REF_FRAME      = TEME
TIME_SYSTEM    = UTC
MEAN_ELEMENT_THEORY = SGP/SGP4

EPOCH          = 2026-03-19T21:55:56.286624
MEAN_MOTION    = 15.17595343
ECCENTRICITY   = .00329757
INCLINATION    = 43.0150
RA_OF_ASC_NODE = 319.8269
ARG_OF_PERICENTER = 298.1693
MEAN_ANOMALY   = 61.5826

EPHEMERIS_TYPE = 0
CLASSIFICATION_TYPE = U
NORAD_CAT_ID   = 42758
ELEMENT_SET_NO = 999
REV_AT_EPOCH   = 48409
BSTAR          = .23364308E-3
MEAN_MOTION_DOT = .4607E-4
MEAN_MOTION_DDOT = 0

CCSDS_OMM_VERS = 2.0
CREATION_DATE  = 
ORIGINATOR     = 

OBJECT_NAME    = SAOCOM 1A
OBJECT_ID      = 2018-076A
CENTER_NAME    = EARTH
REF_FRAME      = TEME
TIME_SYSTEM    = UTC
MEAN_ELEMENT_THEORY = SGP/SGP4

EPOCH          = 2026-03-19T22:54:38.314368
MEAN_MOTION    = 14.82153587
ECCENTRICITY   = .00015222
INCLINATION    = 97.8891
RA_OF_ASC_NODE = 266.9823
ARG_OF_PERICENTER = 86.7782
MEAN_ANOMALY   = 273.3606

EPHEMERIS_TYPE = 0
CLASSIFICATION_TYPE = U
NORAD_CAT_ID   = 43641
ELEMENT_SET_NO = 999
REV_AT_EPOCH   = 40288
BSTAR          = .13280254E-3
MEAN_MOTION_DOT = .1005E-4
MEAN_MOTION_DDOT = 0

CCSDS_OMM_VERS = 2.0
CREATION_DATE  = 
ORIGINATOR     = 

OBJECT_NAME    = H-2A R/B
OBJECT_ID      = 2018-084L
CENTER_NAME    = EARTH
REF_FRAME      = TEME
TIME_SYSTEM    = UTC
MEAN_ELEMENT_THEORY = SGP/SGP4

EPOCH          = 2026-03-19T12:49:12.878976
MEAN_MOTION    = 15.41743377
ECCENTRICITY   = .00246071
INCLINATION    = 98.8714
RA_OF_ASC_NODE = 298.0296
ARG_OF_PERICENTER = 351.4597
MEAN_ANOMALY   = 8.6223

EPHEMERIS_TYPE = 0
CLASSIFICATION_TYPE = U
NORAD_CAT_ID   = 43682
ELEMENT_SET_NO = 999
REV_AT_EPOCH   = 40729
BSTAR          = .32973938E-3
MEAN_MOTION_DOT = .1398E-3
MEAN_MOTION_DDOT = 0

CCSDS_OMM_VERS = 2.0
CREATION_DATE  = 
ORIGINATOR     = 

OBJECT_NAME    = SAOCOM 1B
OBJECT_ID      = 2020-059A
CENTER_NAME    = EARTH
REF_FRAME      = TEME
TIME_SYSTEM    = UTC
MEAN_ELEMENT_THEORY = SGP/SGP4

EPOCH          = 2026-03-19T22:02:22.115328
MEAN_MOTION    = 14.82145512
ECCENTRICITY   = .00014504
INCLINATION    = 97.8890
RA_OF_ASC_NODE = 266.0446
ARG_OF_PERICENTER = 88.3768
MEAN_ANOMALY   = 271.7611

EPHEMERIS_TYPE = 0
CLASSIFICATION_TYPE = U
NORAD_CAT_ID   = 46265
ELEMENT_SET_NO = 999
REV_AT_EPOCH   = 30026
BSTAR          = .12118217E-4
MEAN_MOTION_DOT = .44E-6
MEAN_MOTION_DDOT = 0

CCSDS_OMM_VERS = 2.0
CREATION_DATE  = 
ORIGINATOR     = 

OBJECT_NAME    = CSS (TIANHE)
OBJECT_ID      = 2021-035A
CENTER_NAME    = EARTH
REF_FRAME      = TEME
TIME_SYSTEM    = UTC
MEAN_ELEMENT_THEORY = SGP/SGP4

EPOCH          = 2026-03-19T22:51:28.642176
MEAN_MOTION    = 15.61194072
ECCENTRICITY   = .00057576
INCLINATION    = 41.4666
RA_OF_ASC_NODE = 145.6913
ARG_OF_PERICENTER = 337.4342
MEAN_ANOMALY   = 22.6243

EPHEMERIS_TYPE = 0
CLASSIFICATION_TYPE = U
NORAD_CAT_ID   = 48274
ELEMENT_SET_NO = 999
REV_AT_EPOCH   = 27921
BSTAR          = .25068156E-3
MEAN_MOTION_DOT = .21562E-3
MEAN_MOTION_DDOT = 0

CCSDS_OMM_VERS = 2.0
CREATION_DATE  = 
ORIGINATOR     = 

OBJECT_NAME    = COSMOS 2550
OBJECT_ID      = 2021-056A
CENTER_NAME    = EARTH
REF_FRAME      = TEME
TIME_SYSTEM    = UTC
MEAN_ELEMENT_THEORY = SGP/SGP4

EPOCH          = 2026-03-19T22:48:46.694016
MEAN_MOTION    = 15.33828345
ECCENTRICITY   = .00081842
INCLINATION    = 67.1449
RA_OF_ASC_NODE = 9.8434
ARG_OF_PERICENTER = 269.0525
MEAN_ANOMALY   = 90.9692

EPHEMERIS_TYPE = 0
CLASSIFICATION_TYPE = U
NORAD_CAT_ID   = 48865
ELEMENT_SET_NO = 999
REV_AT_EPOCH   = 26503
BSTAR          = -.112234E-6
MEAN_MOTION_DOT = -.195E-5
MEAN_MOTION_DDOT = 0

CCSDS_OMM_VERS = 2.0
CREATION_DATE  = 
ORIGINATOR     = 

OBJECT_NAME    = CZ-2C R/B
OBJECT_ID      = 2022-058K
CENTER_NAME    = EARTH
REF_FRAME      = TEME
TIME_SYSTEM    = UTC
MEAN_ELEMENT_THEORY = SGP/SGP4

EPOCH          = 2026-03-19T22:12:10.992672
MEAN_MOTION    = 15.54929442
ECCENTRICITY   = .00418576
INCLINATION    = 50.1871
RA_OF_ASC_NODE = 265.6082
ARG_OF_PERICENTER = 244.5236
MEAN_ANOMALY   = 115.1402

EPHEMERIS_TYPE = 0
CLASSIFICATION_TYPE = U
NORAD_CAT_ID   = 52794
ELEMENT_SET_NO = 999
REV_AT_EPOCH   = 21172
BSTAR          = .44923448E-3
MEAN_MOTION_DOT = .31493E-3
MEAN_MOTION_DDOT = 0

CCSDS_OMM_VERS = 2.0
CREATION_DATE  = 
ORIGINATOR     = 

OBJECT_NAME    = CZ-2C R/B
OBJECT_ID      = 2022-132E
CENTER_NAME    = EARTH
REF_FRAME      = TEME
TIME_SYSTEM    = UTC
MEAN_ELEMENT_THEORY = SGP/SGP4

EPOCH          = 2026-03-19T22:33:27.061920
MEAN_MOTION    = 15.62756367
ECCENTRICITY   = .00195043
INCLINATION    = 97.2958
RA_OF_ASC_NODE = 82.5749
ARG_OF_PERICENTER = 58.8305
MEAN_ANOMALY   = 301.4863

EPHEMERIS_TYPE = 0
CLASSIFICATION_TYPE = U
NORAD_CAT_ID   = 54039
ELEMENT_SET_NO = 999
REV_AT_EPOCH   = 19197
BSTAR          = .4246401E-3
MEAN_MOTION_DOT = .38491E-3
MEAN_MOTION_DDOT = 0

CCSDS_OMM_VERS = 2.0
CREATION_DATE  = 
ORIGINATOR     = 

OBJECT_NAME    = GSLV R/B
OBJECT_ID      = 2022-138AN
CENTER_NAME    = EARTH
REF_FRAME      = TEME
TIME_SYSTEM    = UTC
MEAN_ELEMENT_THEORY = SGP/SGP4

EPOCH          = 2026-03-19T17:58:26.267232
MEAN_MOTION    = 14.96838204
ECCENTRICITY   = .00239461
INCLINATION    = 87.3871
RA_OF_ASC_NODE = 162.9954
ARG_OF_PERICENTER = 113.1670
MEAN_ANOMALY   = 247.2088

EPHEMERIS_TYPE = 0
CLASSIFICATION_TYPE = U
NORAD_CAT_ID   = 54149
ELEMENT_SET_NO = 999
REV_AT_EPOCH   = 18543
BSTAR          = .17739828E-3
MEAN_MOTION_DOT = .2072E-4
MEAN_MOTION_DDOT = 0

