ALOS-2                  
1 39766U 14029A   26078.93102588  .00000485  00000+0  71914-4 0  9998
2 39766  97.9196 177.3798 0001788 107.5742 252.5665 14.79408776638388
YAOGAN-29               
1 41038U 15069A   26078.98273025  .00000508  00000+0  69170-4 0  9995
2 41038  98.0128 107.4389 0001206  22.7761 337.3505 14.83007271557402
ASTRO-H (HITOMI)        
1 41337U 16012A   26078.81369164  .00002672  00000+0  15439-3 0  9990
2 41337  30.9993 291.2126 0009618  72.9706 287.1986 15.10068181553769
HXMT (HUIYAN)           
1 42758U 17034A   26078.91384591  .00004607  00000+0  23364-3 0  9991
2 42758  43.0150 319.8269 0032975 298.1693  61.5826 15.17595343484099
SAOCOM 1A               
1 43641U 18076A   26078.95461012  .00001005  00000+0  13280-3 0  9993
2 43641  97.8891 266.9823 0001522  86.7782 273.3606 14.82153587402889
H-2A R/B                
1 43682U 18084L   26078.53417684  .00013980  00000+0  32974-3 0  9993
2 43682  98.8714 298.0296 0024607 351.4597   8.6223 15.41743377407296
SAOCOM 1B               
1 46265U 20059A   26078.91831152  .00000044  00000+0  12118-4 0  9996
2 46265  97.8890 266.0446 0001450  88.3768 271.7611 14.82145512300263
CSS (TIANHE)            
1 48274U 21035A   26078.95241484  .00021562  00000+0  25068-3 0  9995
2 48274  41.4666 145.6913 0005757 337.4342  22.6243 15.61194072279219
COSMOS 2550             
1 48865U 21056A   26078.95054044 -.00000195  00000+0 -11223-6 0  9990
2 48865  67.1449   9.8434 0008184 269.0525  90.9692 15.33828345265035
CZ-2C R/B               
1 52794U 22058K   26078.92512723  .00031493  00000+0  44923-3 0  9992
2 52794  50.1871 265.6082 0041857 244.5236 115.1402 15.54929442211723
CZ-2C R/B               
1 54039U 22132E   26078.93989655  .00038491  00000+0  42464-3 0  9995
2 54039  97.2958  82.5749 0019504  58.8305 301.4863 15.62756367191976
GSLV R/B                
1 54149U 22138AN  26078.74891513  .00002072  00000+0  17740-3 0  9992
2 54149  87.3871 162.9954 0023946 113.1670 247.2088 14.96838204185435
